[{"OBJECT_NAME":"IRIDE FM7","OBJECT_ID":"2025-276AM","EPOCH":"2026-03-09T18:04:05.183328","MEAN_MOTION":15.18866259,"ECCENTRICITY":0.0003982,"INCLINATION":97.4286,"RA_OF_ASC_NODE":144.0153,"ARG_OF_PERICENTER":10.7537,"MEAN_ANOMALY":349.3782,"EPHEMERIS_TYPE":0,"CLASSIFICATION_TYPE":"U","NORAD_CAT_ID":66701,"ELEMENT_SET_NO":999,"REV_AT_EPOCH":1532,"BSTAR":0.00050729395,"MEAN_MOTION_DOT":0.00010516,"MEAN_MOTION_DDOT":0},{"OBJECT_NAME":"COSMOS 375 DEB","OBJECT_ID":"1970-091H","EPOCH":"2026-03-09T13:56:42.077184","MEAN_MOTION":14.60451332,"ECCENTRICITY":0.0264087,"INCLINATION":62.7485,"RA_OF_ASC_NODE":160.0286,"ARG_OF_PERICENTER":210.3604,"MEAN_ANOMALY":148.1954,"EPHEMERIS_TYPE":0,"CLASSIFICATION_TYPE":"U","NORAD_CAT_ID":4628,"ELEMENT_SET_NO":999,"REV_AT_EPOCH":74903,"BSTAR":0.0018248,"MEAN_MOTION_DOT":0.00014425,"MEAN_MOTION_DDOT":0}]
